[{"OBJECT_NAME":"STARLINK-2591","OBJECT_ID":"2021-038J","EPOCH":"2026-03-09T22:38:17.806560","MEAN_MOTION":15.30196528,"ECCENTRICITY":0.00014184,"INCLINATION":53.1606,"RA_OF_ASC_NODE":356.94,"ARG_OF_PERICENTER":98.6455,"MEAN_ANOMALY":261.4707,"EPHEMERIS_TYPE":0,"CLASSIFICATION_TYPE":"U","NORAD_CAT_ID":48361,"ELEMENT_SET_NO":999,"REV_AT_EPOCH":26711,"BSTAR":-3.47672e-7,"MEAN_MOTION_DOT":-3.7e-6,"MEAN_MOTION_DDOT":0},{"OBJECT_NAME":"VIZARD-METEO (RS38S)","OBJECT_ID":"2023-091Z","EPOCH":"2026-03-09T23:01:09.168960","MEAN_MOTION":15.32764799,"ECCENTRICITY":0.00087615,"INCLINATION":97.5192,"RA_OF_ASC_NODE":136.6522,"ARG_OF_PERICENTER":71.7666,"MEAN_ANOMALY":288.4529,"EPHEMERIS_TYPE":0,"CLASSIFICATION_TYPE":"U","NORAD_CAT_ID":57189,"ELEMENT_SET_NO":999,"REV_AT_EPOCH":14947,"BSTAR":0.00066106249,"MEAN_MOTION_DOT":0.00020895,"MEAN_MOTION_DDOT":0}]
